[{"OBJECT_NAME":"STARLINK-5577","OBJECT_ID":"2023-028L","EPOCH":"2026-03-09T20:40:34.584096","MEAN_MOTION":14.98327635,"ECCENTRICITY":0.00021565,"INCLINATION":69.9992,"RA_OF_ASC_NODE":244.1117,"ARG_OF_PERICENTER":271.7261,"MEAN_ANOMALY":88.3651,"EPHEMERIS_TYPE":0,"CLASSIFICATION_TYPE":"U","NORAD_CAT_ID":55751,"ELEMENT_SET_NO":999,"REV_AT_EPOCH":16606,"BSTAR":4.8001568e-5,"MEAN_MOTION_DOT":4.8e-6,"MEAN_MOTION_DDOT":0},{"OBJECT_NAME":"METHANESAT","OBJECT_ID":"2024-043D","EPOCH":"2026-03-09T22:12:33.121440","MEAN_MOTION":14.97588653,"ECCENTRICITY":0.00100526,"INCLINATION":97.8288,"RA_OF_ASC_NODE":199.6058,"ARG_OF_PERICENTER":350.2517,"MEAN_ANOMALY":9.8508,"EPHEMERIS_TYPE":0,"CLASSIFICATION_TYPE":"U","NORAD_CAT_ID":59101,"ELEMENT_SET_NO":999,"REV_AT_EPOCH":10979,"BSTAR":0.00032562202,"MEAN_MOTION_DOT":3.748e-5,"MEAN_MOTION_DDOT":0}]
